[{
        "pinyin": "anqingshi",
        "first_char": "A",
        "area": "3",
        "id": "60",
        "parentid": "9",
        "listorder": "0",
        "code": "340800",
        "region": "0556",
        "name": "安庆市"
    },
    {
        "pinyin": "anshanshi",
        "first_char": "A",
        "area": "1",
        "id": "94",
        "parentid": "3",
        "listorder": "0",
        "code": "210300",
        "region": "0412",
        "name": "鞍山市"
    },
    {
        "pinyin": "anyangshi",
        "first_char": "A",
        "area": "5",
        "id": "224",
        "parentid": "18",
        "listorder": "0",
        "code": "410500",
        "region": "0372",
        "name": "安阳市"
    },
    {
        "pinyin": "ankangshi",
        "first_char": "A",
        "area": "6",
        "id": "323",
        "parentid": "25",
        "listorder": "0",
        "code": "610900",
        "region": "0915",
        "name": "安康市"
    },
    {
        "pinyin": "anshunshi",
        "first_char": "A",
        "area": "7",
        "id": "328",
        "parentid": "27",
        "listorder": "0",
        "code": "520400",
        "region": "0853",
        "name": "安顺市"
    },
    {
        "pinyin": "alashanmeng",
        "first_char": "A",
        "area": "2",
        "id": "382",
        "parentid": "6",
        "listorder": "0",
        "code": "152900",
        "region": "0483",
        "name": "阿拉善盟"
    },
    {
        "pinyin": "akesudiqu",
        "first_char": "A",
        "area": "6",
        "id": "390",
        "parentid": "26",
        "listorder": "0",
        "code": "652900",
        "region": "0997",
        "name": "阿克苏地区"
    },
    {
        "pinyin": "aletaidiqu",
        "first_char": "A",
        "area": "6",
        "id": "396",
        "parentid": "26",
        "listorder": "0",
        "code": "654300",
        "region": "0906",
        "name": "阿勒泰地区"
    },
    {
        "pinyin": "alaershi",
        "first_char": "A",
        "area": "6",
        "id": "398",
        "parentid": "26",
        "listorder": "0",
        "code": "659002",
        "region": "1997",
        "name": "阿拉尔市"
    },
    {
        "pinyin": "ali",
        "first_char": "A",
        "area": "7",
        "id": "425",
        "parentid": "29",
        "listorder": "0",
        "code": "542500",
        "region": "0897",
        "name": "阿里"
    },
    {
        "pinyin": "bangbushi",
        "first_char": "B",
        "area": "3",
        "id": "55",
        "parentid": "9",
        "listorder": "0",
        "code": "340300",
        "region": "0552",
        "name": "蚌埠市"
    },
    {
        "pinyin": "bozhoushi",
        "first_char": "B",
        "area": "3",
        "id": "67",
        "parentid": "9",
        "listorder": "0",
        "code": "341600",
        "region": "0558",
        "name": "亳州市"
    },
    {
        "pinyin": "baishanshi",
        "first_char": "B",
        "area": "1",
        "id": "88",
        "parentid": "2",
        "listorder": "0",
        "code": "220600",
        "region": "0439",
        "name": "白山市"
    },
    {
        "pinyin": "baichengshi",
        "first_char": "B",
        "area": "1",
        "id": "90",
        "parentid": "2",
        "listorder": "0",
        "code": "220800",
        "region": "0436",
        "name": "白城市"
    },
    {
        "pinyin": "benxishi",
        "first_char": "B",
        "area": "1",
        "id": "96",
        "parentid": "3",
        "listorder": "0",
        "code": "210500",
        "region": "0414",
        "name": "本溪市"
    },
    {
        "pinyin": "baodingshi",
        "first_char": "B",
        "area": "2",
        "id": "111",
        "parentid": "5",
        "listorder": "0",
        "code": "130600",
        "region": "0312",
        "name": "保定市"
    },
    {
        "pinyin": "binzhoushi",
        "first_char": "B",
        "area": "3",
        "id": "165",
        "parentid": "12",
        "listorder": "0",
        "code": "371600",
        "region": "0543",
        "name": "滨州市"
    },
    {
        "pinyin": "baishalizuzizhixian",
        "first_char": "B",
        "area": "4",
        "id": "211",
        "parentid": "17",
        "listorder": "0",
        "code": "469025",
        "region": "0802",
        "name": "白沙黎族自治县"
    },
    {
        "pinyin": "baotinglizumiaozuzizhixian",
        "first_char": "B",
        "area": "4",
        "id": "215",
        "parentid": "17",
        "listorder": "0",
        "code": "469029",
        "region": "0801",
        "name": "保亭黎族苗族自治县"
    },
    {
        "pinyin": "baiyinshi",
        "first_char": "B",
        "area": "6",
        "id": "296",
        "parentid": "22",
        "listorder": "0",
        "code": "620400",
        "region": "0943",
        "name": "白银市"
    },
    {
        "pinyin": "baojishi",
        "first_char": "B",
        "area": "6",
        "id": "317",
        "parentid": "25",
        "listorder": "0",
        "code": "610300",
        "region": "0917",
        "name": "宝鸡市"
    },
    {
        "pinyin": "bazhongshi",
        "first_char": "B",
        "area": "7",
        "id": "350",
        "parentid": "28",
        "listorder": "0",
        "code": "511900",
        "region": "0827",
        "name": "巴中市"
    },
    {
        "pinyin": "baoshanshi",
        "first_char": "B",
        "area": "7",
        "id": "358",
        "parentid": "30",
        "listorder": "0",
        "code": "530500",
        "region": "0875",
        "name": "保山市"
    },
    {
        "pinyin": "baotoushi",
        "first_char": "B",
        "area": "2",
        "id": "372",
        "parentid": "6",
        "listorder": "0",
        "code": "150200",
        "region": "0472",
        "name": "包头市"
    },
    {
        "pinyin": "bayannaoershi",
        "first_char": "B",
        "area": "2",
        "id": "378",
        "parentid": "6",
        "listorder": "0",
        "code": "150800",
        "region": "0478",
        "name": "巴彦淖尔市"
    },
    {
        "pinyin": "beihaishi",
        "first_char": "B",
        "area": "4",
        "id": "405",
        "parentid": "15",
        "listorder": "0",
        "code": "450500",
        "region": "0779",
        "name": "北海市"
    },
    {
        "pinyin": "baiseshi",
        "first_char": "B",
        "area": "4",
        "id": "410",
        "parentid": "15",
        "listorder": "0",
        "code": "451000",
        "region": "0776",
        "name": "百色市"
    },
    {
        "pinyin": "beijingshi",
        "first_char": "B",
        "area": "2",
        "id": "428",
        "parentid": "4",
        "listorder": "0",
        "code": "110100",
        "region": "010",
        "name": "北京市"
    },
    {
        "pinyin": "bijie",
        "first_char": "B",
        "area": "7",
        "id": "437",
        "parentid": "27",
        "listorder": "0",
        "code": "520500",
        "region": "0857",
        "name": "毕节市"
    },
    {
        "pinyin": "chuzhoushi",
        "first_char": "C",
        "area": "3",
        "id": "62",
        "parentid": "9",
        "listorder": "0",
        "code": "341100",
        "region": "0550",
        "name": "滁州市"
    },
    {
        "pinyin": "chaohushi",
        "first_char": "C",
        "area": "3",
        "id": "65",
        "parentid": "9",
        "listorder": "0",
        "code": "340181",
        "region": "0551",
        "name": "巢湖市"
    },
    {
        "pinyin": "chizhoushi",
        "first_char": "C",
        "area": "3",
        "id": "68",
        "parentid": "9",
        "listorder": "0",
        "code": "341700",
        "region": "0566",
        "name": "池州市"
    },
    {
        "pinyin": "changchunshi",
        "first_char": "C",
        "area": "1",
        "id": "83",
        "parentid": "2",
        "listorder": "0",
        "code": "220100",
        "region": "0431",
        "name": "长春市"
    },
    {
        "pinyin": "chaoyangshi",
        "first_char": "C",
        "area": "1",
        "id": "104",
        "parentid": "3",
        "listorder": "0",
        "code": "211300",
        "region": "0421",
        "name": "朝阳市"
    },
    {
        "pinyin": "chengdeshi",
        "first_char": "C",
        "area": "2",
        "id": "113",
        "parentid": "5",
        "listorder": "0",
        "code": "130800",
        "region": "0314",
        "name": "承德市"
    },
    {
        "pinyin": "cangzhoushi",
        "first_char": "C",
        "area": "2",
        "id": "114",
        "parentid": "5",
        "listorder": "0",
        "code": "130900",
        "region": "0317",
        "name": "沧州市"
    },
    {
        "pinyin": "changzhishi",
        "first_char": "C",
        "area": "2",
        "id": "120",
        "parentid": "7",
        "listorder": "0",
        "code": "140400",
        "region": "0355",
        "name": "长治市"
    },
    {
        "pinyin": "changzhoushi",
        "first_char": "C",
        "area": "3",
        "id": "140",
        "parentid": "11",
        "listorder": "0",
        "code": "320400",
        "region": "0519",
        "name": "常州市"
    },
    {
        "pinyin": "chaozhoushi",
        "first_char": "C",
        "area": "4",
        "id": "196",
        "parentid": "16",
        "listorder": "0",
        "code": "445100",
        "region": "0768",
        "name": "潮州市"
    },
    {
        "pinyin": "chengmaixian",
        "first_char": "C",
        "area": "4",
        "id": "209",
        "parentid": "17",
        "listorder": "0",
        "code": "469023",
        "region": "0804",
        "name": "澄迈县"
    },
    {
        "pinyin": "changjianglizuzizhixian",
        "first_char": "C",
        "area": "4",
        "id": "212",
        "parentid": "17",
        "listorder": "0",
        "code": "469026",
        "region": "0803",
        "name": "昌江黎族自治县"
    },
    {
        "pinyin": "changshashi",
        "first_char": "C",
        "area": "5",
        "id": "254",
        "parentid": "20",
        "listorder": "0",
        "code": "430100",
        "region": "0731",
        "name": "长沙市"
    },
    {
        "pinyin": "changdeshi",
        "first_char": "C",
        "area": "5",
        "id": "260",
        "parentid": "20",
        "listorder": "0",
        "code": "430700",
        "region": "0736",
        "name": "常德市"
    },
    {
        "pinyin": "chenzhoushi",
        "first_char": "C",
        "area": "5",
        "id": "263",
        "parentid": "20",
        "listorder": "0",
        "code": "431000",
        "region": "0735",
        "name": "郴州市"
    },
    {
        "pinyin": "chengdushi",
        "first_char": "C",
        "area": "7",
        "id": "334",
        "parentid": "28",
        "listorder": "0",
        "code": "510100",
        "region": "028",
        "name": "成都市"
    },
    {
        "pinyin": "chifengshi",
        "first_char": "C",
        "area": "2",
        "id": "374",
        "parentid": "6",
        "listorder": "0",
        "code": "150400",
        "region": "0476",
        "name": "赤峰市"
    },
    {
        "pinyin": "chongzuoshi",
        "first_char": "C",
        "area": "4",
        "id": "414",
        "parentid": "15",
        "listorder": "0",
        "code": "451400",
        "region": "1771",
        "name": "崇左市"
    },
    {
        "pinyin": "changdu",
        "first_char": "C",
        "area": "7",
        "id": "421",
        "parentid": "29",
        "listorder": "0",
        "code": "540300",
        "region": "0895",
        "name": "昌都"
    },
    {
        "pinyin": "chongqingshi",
        "first_char": "C",
        "area": "7",
        "id": "431",
        "parentid": "31",
        "listorder": "0",
        "code": "500100",
        "region": "023",
        "name": "重庆市"
    },
    {
        "pinyin": "chuxiong",
        "first_char": "C",
        "area": "7",
        "id": "434",
        "parentid": "30",
        "listorder": "0",
        "code": "532300",
        "region": "0878",
        "name": "楚雄彝族自治州"
    },
    {
        "pinyin": "daqingshi",
        "first_char": "D",
        "area": "1",
        "id": "75",
        "parentid": "1",
        "listorder": "0",
        "code": "230600",
        "region": "0459",
        "name": "大庆市"
    },
    {
        "pinyin": "daxinganlingdiqu",
        "first_char": "D",
        "area": "1",
        "id": "82",
        "parentid": "1",
        "listorder": "0",
        "code": "232700",
        "region": "0457",
        "name": "大兴安岭地区"
    },
    {
        "pinyin": "dalianshi",
        "first_char": "D",
        "area": "1",
        "id": "93",
        "parentid": "3",
        "listorder": "0",
        "code": "210200",
        "region": "0411",
        "name": "大连市"
    },
    {
        "pinyin": "dandongshi",
        "first_char": "D",
        "area": "1",
        "id": "97",
        "parentid": "3",
        "listorder": "0",
        "code": "210600",
        "region": "0415",
        "name": "丹东市"
    },
    {
        "pinyin": "datongshi",
        "first_char": "D",
        "area": "2",
        "id": "118",
        "parentid": "7",
        "listorder": "0",
        "code": "140200",
        "region": "0352",
        "name": "大同市"
    },
    {
        "pinyin": "dongyingshi",
        "first_char": "D",
        "area": "3",
        "id": "154",
        "parentid": "12",
        "listorder": "0",
        "code": "370500",
        "region": "0546",
        "name": "东营市"
    },
    {
        "pinyin": "dezhoushi",
        "first_char": "D",
        "area": "3",
        "id": "163",
        "parentid": "12",
        "listorder": "0",
        "code": "371400",
        "region": "0534",
        "name": "德州市"
    },
    {
        "pinyin": "dongshi",
        "first_char": "D",
        "area": "4",
        "id": "194",
        "parentid": "16",
        "listorder": "0",
        "code": "441900",
        "region": "0769",
        "name": "东莞市"
    },
    {
        "pinyin": "danzhoushi",
        "first_char": "D",
        "area": "4",
        "id": "203",
        "parentid": "17",
        "listorder": "0",
        "code": "460400",
        "region": "0805",
        "name": "儋州市"
    },
    {
        "pinyin": "dongfangshi",
        "first_char": "D",
        "area": "4",
        "id": "206",
        "parentid": "17",
        "listorder": "0",
        "code": "469007",
        "region": "0807",
        "name": "东方市"
    },
    {
        "pinyin": "dinganxian",
        "first_char": "D",
        "area": "4",
        "id": "207",
        "parentid": "17",
        "listorder": "0",
        "code": "469021",
        "region": "0806",
        "name": "定安县"
    },
    {
        "pinyin": "dingxishi",
        "first_char": "D",
        "area": "6",
        "id": "303",
        "parentid": "22",
        "listorder": "0",
        "code": "621100",
        "region": "0932",
        "name": "定西市"
    },
    {
        "pinyin": "deyangshi",
        "first_char": "D",
        "area": "7",
        "id": "338",
        "parentid": "28",
        "listorder": "0",
        "code": "510600",
        "region": "0838",
        "name": "德阳市"
    },
    {
        "pinyin": "dazhoushi",
        "first_char": "D",
        "area": "7",
        "id": "348",
        "parentid": "28",
        "listorder": "0",
        "code": "511700",
        "region": "0818",
        "name": "达州市"
    },
    {
        "pinyin": "dali",
        "first_char": "D",
        "area": "7",
        "id": "367",
        "parentid": "30",
        "listorder": "0",
        "code": "532900",
        "region": "0872",
        "name": "大理"
    },
    {
        "pinyin": "dehong",
        "first_char": "D",
        "area": "7",
        "id": "368",
        "parentid": "30",
        "listorder": "0",
        "code": "533100",
        "region": "0692",
        "name": "德宏"
    },
    {
        "pinyin": "diqing",
        "first_char": "D",
        "area": "7",
        "id": "370",
        "parentid": "30",
        "listorder": "0",
        "code": "533400",
        "region": "0887",
        "name": "迪庆"
    },
    {
        "pinyin": "ezhoushi",
        "first_char": "E",
        "area": "5",
        "id": "242",
        "parentid": "19",
        "listorder": "0",
        "code": "420700",
        "region": "0711",
        "name": "鄂州市"
    },
    {
        "pinyin": "enshitujiazumiaozuzizhizhou",
        "first_char": "E",
        "area": "5",
        "id": "249",
        "parentid": "19",
        "listorder": "0",
        "code": "422800",
        "region": "0718",
        "name": "恩施土家族苗族自治州"
    },
    {
        "pinyin": "eerduosishi",
        "first_char": "E",
        "area": "2",
        "id": "376",
        "parentid": "6",
        "listorder": "0",
        "code": "150600",
        "region": "0477",
        "name": "鄂尔多斯市"
    },
    {
        "pinyin": "fuyangshi",
        "first_char": "F",
        "area": "3",
        "id": "63",
        "parentid": "9",
        "listorder": "0",
        "code": "341200",
        "region": "1558",
        "name": "阜阳市"
    },
    {
        "pinyin": "fushunshi",
        "first_char": "F",
        "area": "1",
        "id": "95",
        "parentid": "3",
        "listorder": "0",
        "code": "210400",
        "region": "0413",
        "name": "抚顺市"
    },
    {
        "pinyin": "fuxinshi",
        "first_char": "F",
        "area": "1",
        "id": "100",
        "parentid": "3",
        "listorder": "0",
        "code": "210900",
        "region": "0418",
        "name": "阜新市"
    },
    {
        "pinyin": "fuzhoushi",
        "first_char": "F",
        "area": "3",
        "id": "128",
        "parentid": "10",
        "listorder": "0",
        "code": "350100",
        "region": "0591",
        "name": "福州市"
    },
    {
        "pinyin": "foshanshi",
        "first_char": "F",
        "area": "4",
        "id": "183",
        "parentid": "16",
        "listorder": "0",
        "code": "440600",
        "region": "0757",
        "name": "佛山市"
    },
    {
        "pinyin": "fuzhoushi",
        "first_char": "F",
        "area": "5",
        "id": "277",
        "parentid": "21",
        "listorder": "0",
        "code": "361000",
        "region": "0794",
        "name": "抚州市"
    },
    {
        "pinyin": "fangchenggangshi",
        "first_char": "F",
        "area": "4",
        "id": "406",
        "parentid": "15",
        "listorder": "0",
        "code": "450600",
        "region": "0770",
        "name": "防城港市"
    },
    {
        "pinyin": "guangzhoushi",
        "first_char": "G",
        "area": "4",
        "id": "178",
        "parentid": "16",
        "listorder": "0",
        "code": "440100",
        "region": "020",
        "name": "广州市"
    },
    {
        "pinyin": "ganzhoushi",
        "first_char": "G",
        "area": "5",
        "id": "274",
        "parentid": "21",
        "listorder": "0",
        "code": "360700",
        "region": "0797",
        "name": "赣州市"
    },
    {
        "pinyin": "ganzhou",
        "first_char": "G",
        "area": "6",
        "id": "306",
        "parentid": "22",
        "listorder": "0",
        "code": "620702",
        "region": "0936",
        "name": "甘州"
    },
    {
        "pinyin": "guiyangshi",
        "first_char": "G",
        "area": "7",
        "id": "325",
        "parentid": "27",
        "listorder": "0",
        "code": "520100",
        "region": "0851",
        "name": "贵阳市"
    },
    {
        "pinyin": "guangyuanshi",
        "first_char": "G",
        "area": "7",
        "id": "340",
        "parentid": "28",
        "listorder": "0",
        "code": "510800",
        "region": "0839",
        "name": "广元市"
    },
    {
        "pinyin": "guanganshi",
        "first_char": "G",
        "area": "7",
        "id": "347",
        "parentid": "28",
        "listorder": "0",
        "code": "511600",
        "region": "0826",
        "name": "广安市"
    },
    {
        "pinyin": "guilinshi",
        "first_char": "G",
        "area": "4",
        "id": "403",
        "parentid": "15",
        "listorder": "0",
        "code": "450300",
        "region": "0773",
        "name": "桂林市"
    },
    {
        "pinyin": "guigangshi",
        "first_char": "G",
        "area": "4",
        "id": "408",
        "parentid": "15",
        "listorder": "0",
        "code": "450800",
        "region": "1755",
        "name": "贵港市"
    },
    {
        "pinyin": "guyuanshi",
        "first_char": "G",
        "area": "6",
        "id": "418",
        "parentid": "23",
        "listorder": "0",
        "code": "640400",
        "region": "0954",
        "name": "固原市"
    },
    {
        "pinyin": "hefeishi",
        "first_char": "H",
        "area": "3",
        "id": "53",
        "parentid": "9",
        "listorder": "0",
        "code": "340100",
        "region": "0551",
        "name": "合肥市"
    },
    {
        "pinyin": "huainanshi",
        "first_char": "H",
        "area": "3",
        "id": "56",
        "parentid": "9",
        "listorder": "0",
        "code": "340400",
        "region": "0554",
        "name": "淮南市"
    },
    {
        "pinyin": "huaibeishi",
        "first_char": "H",
        "area": "3",
        "id": "58",
        "parentid": "9",
        "listorder": "0",
        "code": "340600",
        "region": "0561",
        "name": "淮北市"
    },
    {
        "pinyin": "huangshanshi",
        "first_char": "H",
        "area": "3",
        "id": "61",
        "parentid": "9",
        "listorder": "0",
        "code": "341000",
        "region": "0559",
        "name": "黄山市"
    },
    {
        "pinyin": "haerbinshi",
        "first_char": "H",
        "area": "1",
        "id": "70",
        "parentid": "1",
        "listorder": "0",
        "code": "230100",
        "region": "0451",
        "name": "哈尔滨市"
    },
    {
        "pinyin": "hegangshi",
        "first_char": "H",
        "area": "1",
        "id": "73",
        "parentid": "1",
        "listorder": "0",
        "code": "230400",
        "region": "0468",
        "name": "鹤岗市"
    },
    {
        "pinyin": "heiheshi",
        "first_char": "H",
        "area": "1",
        "id": "80",
        "parentid": "1",
        "listorder": "0",
        "code": "231100",
        "region": "0456",
        "name": "黑河市"
    },
    {
        "pinyin": "huludaoshi",
        "first_char": "H",
        "area": "1",
        "id": "105",
        "parentid": "3",
        "listorder": "0",
        "code": "211400",
        "region": "0429",
        "name": "葫芦岛市"
    },
    {
        "pinyin": "handanshi",
        "first_char": "H",
        "area": "2",
        "id": "109",
        "parentid": "5",
        "listorder": "0",
        "code": "130400",
        "region": "0310",
        "name": "邯郸市"
    },
    {
        "pinyin": "hengshuishi",
        "first_char": "H",
        "area": "2",
        "id": "116",
        "parentid": "5",
        "listorder": "0",
        "code": "131100",
        "region": "0318",
        "name": "衡水市"
    },
    {
        "pinyin": "huaianshi",
        "first_char": "H",
        "area": "3",
        "id": "144",
        "parentid": "11",
        "listorder": "0",
        "code": "320800",
        "region": "0517",
        "name": "淮安市"
    },
    {
        "pinyin": "hezeshi",
        "first_char": "H",
        "area": "3",
        "id": "166",
        "parentid": "12",
        "listorder": "0",
        "code": "371700",
        "region": "0530",
        "name": "菏泽市"
    },
    {
        "pinyin": "hangzhoushi",
        "first_char": "H",
        "area": "3",
        "id": "167",
        "parentid": "14",
        "listorder": "0",
        "code": "330100",
        "region": "0571",
        "name": "杭州市"
    },
    {
        "pinyin": "huzhoushi",
        "first_char": "H",
        "area": "3",
        "id": "171",
        "parentid": "14",
        "listorder": "0",
        "code": "330500",
        "region": "0572",
        "name": "湖州市"
    },
    {
        "pinyin": "huizhoushi",
        "first_char": "H",
        "area": "4",
        "id": "188",
        "parentid": "16",
        "listorder": "0",
        "code": "441300",
        "region": "0752",
        "name": "惠州市"
    },
    {
        "pinyin": "heyuanshi",
        "first_char": "H",
        "area": "4",
        "id": "191",
        "parentid": "16",
        "listorder": "0",
        "code": "441600",
        "region": "0762",
        "name": "河源市"
    },
    {
        "pinyin": "haikoushi",
        "first_char": "H",
        "area": "4",
        "id": "199",
        "parentid": "17",
        "listorder": "0",
        "code": "460100",
        "region": "0898",
        "name": "海口市"
    },
    {
        "pinyin": "hebishi",
        "first_char": "H",
        "area": "5",
        "id": "225",
        "parentid": "18",
        "listorder": "0",
        "code": "410600",
        "region": "0392",
        "name": "鹤壁市"
    },
    {
        "pinyin": "huangshishi",
        "first_char": "H",
        "area": "5",
        "id": "238",
        "parentid": "19",
        "listorder": "0",
        "code": "420200",
        "region": "0714",
        "name": "黄石市"
    },
    {
        "pinyin": "huanggangshi",
        "first_char": "H",
        "area": "5",
        "id": "246",
        "parentid": "19",
        "listorder": "0",
        "code": "421100",
        "region": "0713",
        "name": "黄冈市"
    },
    {
        "pinyin": "hengyangshi",
        "first_char": "H",
        "area": "5",
        "id": "257",
        "parentid": "20",
        "listorder": "0",
        "code": "430400",
        "region": "0734",
        "name": "衡阳市"
    },
    {
        "pinyin": "huaihuashi",
        "first_char": "H",
        "area": "5",
        "id": "265",
        "parentid": "20",
        "listorder": "0",
        "code": "431200",
        "region": "0745",
        "name": "怀化市"
    },
    {
        "pinyin": "haizhou",
        "first_char": "H",
        "area": "6",
        "id": "309",
        "parentid": "24",
        "listorder": "0",
        "code": "210902",
        "region": "0418",
        "name": "海州"
    },
    {
        "pinyin": "hanzhongshi",
        "first_char": "H",
        "area": "6",
        "id": "321",
        "parentid": "25",
        "listorder": "0",
        "code": "610700",
        "region": "0916",
        "name": "汉中市"
    },
    {
        "pinyin": "huhehaoteshi",
        "first_char": "H",
        "area": "2",
        "id": "371",
        "parentid": "6",
        "listorder": "0",
        "code": "150100",
        "region": "0471",
        "name": "呼和浩特"
    },
    {
        "pinyin": "hulunbeiershi",
        "first_char": "H",
        "area": "2",
        "id": "377",
        "parentid": "6",
        "listorder": "0",
        "code": "150700",
        "region": "0470",
        "name": "呼伦贝尔市"
    },
    {
        "pinyin": "hetiandiqu",
        "first_char": "H",
        "area": "6",
        "id": "393",
        "parentid": "26",
        "listorder": "0",
        "code": "653200",
        "region": "0903",
        "name": "和田地区"
    },
    {
        "pinyin": "hezhoushi",
        "first_char": "H",
        "area": "4",
        "id": "411",
        "parentid": "15",
        "listorder": "0",
        "code": "451100",
        "region": "1774",
        "name": "贺州市"
    },
    {
        "pinyin": "hechishi",
        "first_char": "H",
        "area": "4",
        "id": "412",
        "parentid": "15",
        "listorder": "0",
        "code": "451200",
        "region": "0778",
        "name": "河池市"
    },
    {
        "pinyin": "honghe",
        "first_char": "H",
        "area": "7",
        "id": "438",
        "parentid": "30",
        "listorder": "0",
        "code": "532500",
        "region": "0873",
        "name": "红河哈尼族彝族自治州"
    },
    {
        "pinyin": "jixishi",
        "first_char": "J",
        "area": "1",
        "id": "72",
        "parentid": "1",
        "listorder": "0",
        "code": "230300",
        "region": "0467",
        "name": "鸡西市"
    },
    {
        "pinyin": "jiamusishi",
        "first_char": "J",
        "area": "1",
        "id": "77",
        "parentid": "1",
        "listorder": "0",
        "code": "230800",
        "region": "0454",
        "name": "佳木斯市"
    },
    {
        "pinyin": "jilinshi",
        "first_char": "J",
        "area": "1",
        "id": "84",
        "parentid": "2",
        "listorder": "0",
        "code": "220200",
        "region": "0432",
        "name": "吉林市"
    },
    {
        "pinyin": "jinzhoushi",
        "first_char": "J",
        "area": "1",
        "id": "98",
        "parentid": "3",
        "listorder": "0",
        "code": "210700",
        "region": "0416",
        "name": "锦州市"
    },
    {
        "pinyin": "jinchengshi",
        "first_char": "J",
        "area": "2",
        "id": "121",
        "parentid": "7",
        "listorder": "0",
        "code": "140500",
        "region": "0356",
        "name": "晋城市"
    },
    {
        "pinyin": "jinzhongshi",
        "first_char": "J",
        "area": "2",
        "id": "123",
        "parentid": "7",
        "listorder": "0",
        "code": "140700",
        "region": "0354",
        "name": "晋中市"
    },
    {
        "pinyin": "jinanshi",
        "first_char": "J",
        "area": "3",
        "id": "150",
        "parentid": "12",
        "listorder": "0",
        "code": "370100",
        "region": "0531",
        "name": "济南市"
    },
    {
        "pinyin": "jiningshi",
        "first_char": "J",
        "area": "3",
        "id": "157",
        "parentid": "12",
        "listorder": "0",
        "code": "370800",
        "region": "0537",
        "name": "济宁市"
    },
    {
        "pinyin": "jiaxingshi",
        "first_char": "J",
        "area": "3",
        "id": "170",
        "parentid": "14",
        "listorder": "0",
        "code": "330400",
        "region": "0573",
        "name": "嘉兴市"
    },
    {
        "pinyin": "jinhuashi",
        "first_char": "J",
        "area": "3",
        "id": "173",
        "parentid": "14",
        "listorder": "0",
        "code": "330700",
        "region": "0579",
        "name": "金华市"
    },
    {
        "pinyin": "jiangmenshi",
        "first_char": "J",
        "area": "4",
        "id": "184",
        "parentid": "16",
        "listorder": "0",
        "code": "440700",
        "region": "0750",
        "name": "江门市"
    },
    {
        "pinyin": "jieyangshi",
        "first_char": "J",
        "area": "4",
        "id": "197",
        "parentid": "16",
        "listorder": "0",
        "code": "445200",
        "region": "0663",
        "name": "揭阳市"
    },
    {
        "pinyin": "jiaozuoshi",
        "first_char": "J",
        "area": "5",
        "id": "227",
        "parentid": "18",
        "listorder": "0",
        "code": "410800",
        "region": "0391",
        "name": "焦作市"
    },
    {
        "pinyin": "jingmenshi",
        "first_char": "J",
        "area": "5",
        "id": "243",
        "parentid": "19",
        "listorder": "0",
        "code": "420800",
        "region": "0724",
        "name": "荆门市"
    },
    {
        "pinyin": "jingzhoushi",
        "first_char": "J",
        "area": "5",
        "id": "245",
        "parentid": "19",
        "listorder": "0",
        "code": "421000",
        "region": "0716",
        "name": "荆州市"
    },
    {
        "pinyin": "jingdezhenshi",
        "first_char": "J",
        "area": "5",
        "id": "269",
        "parentid": "21",
        "listorder": "0",
        "code": "360200",
        "region": "0798",
        "name": "景德镇市"
    },
    {
        "pinyin": "jiujiangshi",
        "first_char": "J",
        "area": "5",
        "id": "271",
        "parentid": "21",
        "listorder": "0",
        "code": "360400",
        "region": "0792",
        "name": "九江市"
    },
    {
        "pinyin": "jianshi",
        "first_char": "J",
        "area": "5",
        "id": "275",
        "parentid": "21",
        "listorder": "0",
        "code": "360800",
        "region": "0796",
        "name": "吉安市"
    },
    {
        "pinyin": "jiayuguanshi",
        "first_char": "J",
        "area": "6",
        "id": "294",
        "parentid": "22",
        "listorder": "0",
        "code": "620200",
        "region": "1937",
        "name": "嘉峪关市"
    },
    {
        "pinyin": "jinchangshi",
        "first_char": "J",
        "area": "6",
        "id": "295",
        "parentid": "22",
        "listorder": "0",
        "code": "620300",
        "region": "0935",
        "name": "金昌市"
    },
    {
        "pinyin": "jiuquanshi",
        "first_char": "J",
        "area": "6",
        "id": "301",
        "parentid": "22",
        "listorder": "0",
        "code": "620900",
        "region": "0937",
        "name": "酒泉市"
    },
    {
        "pinyin": "jiyuan",
        "first_char": "J",
        "area": "5",
        "id": "435",
        "parentid": "18",
        "listorder": "0",
        "code": "419001",
        "region": "0391",
        "name": "济源市"
    },
    {
        "pinyin": "kaifengshi",
        "first_char": "K",
        "area": "5",
        "id": "221",
        "parentid": "18",
        "listorder": "0",
        "code": "410200",
        "region": "0378",
        "name": "开封市"
    },
    {
        "pinyin": "kunmingshi",
        "first_char": "K",
        "area": "7",
        "id": "355",
        "parentid": "30",
        "listorder": "0",
        "code": "530100",
        "region": "0871",
        "name": "昆明市"
    },
    {
        "pinyin": "kelamayishi",
        "first_char": "K",
        "area": "6",
        "id": "384",
        "parentid": "26",
        "listorder": "0",
        "code": "650200",
        "region": "0990",
        "name": "克拉玛依市"
    },
    {
        "pinyin": "kezilesukeerkezizizhizhou",
        "first_char": "K",
        "area": "6",
        "id": "391",
        "parentid": "26",
        "listorder": "0",
        "code": "653000",
        "region": "0908",
        "name": "克孜勒苏柯尔克孜自治州"
    },
    {
        "pinyin": "kashidiqu",
        "first_char": "K",
        "area": "6",
        "id": "392",
        "parentid": "26",
        "listorder": "0",
        "code": "653100",
        "region": "0998",
        "name": "喀什地区"
    },
    {
        "pinyin": "liuanshi",
        "first_char": "L",
        "area": "3",
        "id": "66",
        "parentid": "9",
        "listorder": "0",
        "code": "341500",
        "region": "0564",
        "name": "六安市"
    },
    {
        "pinyin": "liaoyuanshi",
        "first_char": "L",
        "area": "1",
        "id": "86",
        "parentid": "2",
        "listorder": "0",
        "code": "220400",
        "region": "0437",
        "name": "辽源市"
    },
    {
        "pinyin": "liaoyangshi",
        "first_char": "L",
        "area": "1",
        "id": "101",
        "parentid": "3",
        "listorder": "0",
        "code": "211000",
        "region": "0419",
        "name": "辽阳市"
    },
    {
        "pinyin": "langfangshi",
        "first_char": "L",
        "area": "2",
        "id": "115",
        "parentid": "5",
        "listorder": "0",
        "code": "131000",
        "region": "0316",
        "name": "廊坊市"
    },
    {
        "pinyin": "linfenshi",
        "first_char": "L",
        "area": "2",
        "id": "126",
        "parentid": "7",
        "listorder": "0",
        "code": "141000",
        "region": "0357",
        "name": "临汾市"
    },
    {
        "pinyin": "lvliangshi",
        "first_char": "L",
        "area": "2",
        "id": "127",
        "parentid": "7",
        "listorder": "0",
        "code": "141100",
        "region": "0358",
        "name": "吕梁市"
    },
    {
        "pinyin": "longyanshi",
        "first_char": "L",
        "area": "3",
        "id": "135",
        "parentid": "10",
        "listorder": "0",
        "code": "350800",
        "region": "0597",
        "name": "龙岩市"
    },
    {
        "pinyin": "lianyungangshi",
        "first_char": "L",
        "area": "3",
        "id": "143",
        "parentid": "11",
        "listorder": "0",
        "code": "320700",
        "region": "0518",
        "name": "连云港市"
    },
    {
        "pinyin": "laiwushi",
        "first_char": "L",
        "area": "3",
        "id": "161",
        "parentid": "12",
        "listorder": "0",
        "code": "371200",
        "region": "0634",
        "name": "莱芜市"
    },
    {
        "pinyin": "linyishi",
        "first_char": "L",
        "area": "3",
        "id": "162",
        "parentid": "12",
        "listorder": "0",
        "code": "371300",
        "region": "0539",
        "name": "临沂市"
    },
    {
        "pinyin": "liaochengshi",
        "first_char": "L",
        "area": "3",
        "id": "164",
        "parentid": "12",
        "listorder": "0",
        "code": "371500",
        "region": "0635",
        "name": "聊城市"
    },
    {
        "pinyin": "lishuishi",
        "first_char": "L",
        "area": "3",
        "id": "177",
        "parentid": "14",
        "listorder": "0",
        "code": "331100",
        "region": "0578",
        "name": "丽水市"
    },
    {
        "pinyin": "lingaoxian",
        "first_char": "L",
        "area": "4",
        "id": "210",
        "parentid": "17",
        "listorder": "0",
        "code": "469024",
        "region": "1896",
        "name": "临高县"
    },
    {
        "pinyin": "ledonglizuzizhixian",
        "first_char": "L",
        "area": "4",
        "id": "213",
        "parentid": "17",
        "listorder": "0",
        "code": "469027",
        "region": "2802",
        "name": "乐东黎族自治县"
    },
    {
        "pinyin": "lingshuilizuzizhixian",
        "first_char": "L",
        "area": "4",
        "id": "214",
        "parentid": "17",
        "listorder": "0",
        "code": "469028",
        "region": "0809",
        "name": "陵水黎族自治县"
    },
    {
        "pinyin": "luoyangshi",
        "first_char": "L",
        "area": "5",
        "id": "222",
        "parentid": "18",
        "listorder": "0",
        "code": "410300",
        "region": "0379",
        "name": "洛阳市"
    },
    {
        "pinyin": "luoheshi",
        "first_char": "L",
        "area": "5",
        "id": "230",
        "parentid": "18",
        "listorder": "0",
        "code": "411100",
        "region": "0395",
        "name": "漯河市"
    },
    {
        "pinyin": "loudishi",
        "first_char": "L",
        "area": "5",
        "id": "266",
        "parentid": "20",
        "listorder": "0",
        "code": "431300",
        "region": "0738",
        "name": "娄底市"
    },
    {
        "pinyin": "lanzhoushi",
        "first_char": "L",
        "area": "6",
        "id": "293",
        "parentid": "22",
        "listorder": "0",
        "code": "620100",
        "region": "0931",
        "name": "兰州市"
    },
    {
        "pinyin": "longnanshi",
        "first_char": "L",
        "area": "6",
        "id": "304",
        "parentid": "22",
        "listorder": "0",
        "code": "621200",
        "region": "2935",
        "name": "陇南市"
    },
    {
        "pinyin": "liupanshuishi",
        "first_char": "L",
        "area": "7",
        "id": "326",
        "parentid": "27",
        "listorder": "0",
        "code": "520200",
        "region": "0858",
        "name": "六盘水市"
    },
    {
        "pinyin": "leshanshi",
        "first_char": "L",
        "area": "7",
        "id": "343",
        "parentid": "28",
        "listorder": "0",
        "code": "511100",
        "region": "0833",
        "name": "乐山市"
    },
    {
        "pinyin": "lijiangshi",
        "first_char": "L",
        "area": "7",
        "id": "360",
        "parentid": "30",
        "listorder": "0",
        "code": "530700",
        "region": "0888",
        "name": "丽江市"
    },
    {
        "pinyin": "lincangshi",
        "first_char": "L",
        "area": "7",
        "id": "362",
        "parentid": "30",
        "listorder": "0",
        "code": "530900",
        "region": "0883",
        "name": "临沧市"
    },
    {
        "pinyin": "liuzhoushi",
        "first_char": "L",
        "area": "4",
        "id": "402",
        "parentid": "15",
        "listorder": "0",
        "code": "450200",
        "region": "0772",
        "name": "柳州市"
    },
    {
        "pinyin": "laibinshi",
        "first_char": "L",
        "area": "4",
        "id": "413",
        "parentid": "15",
        "listorder": "0",
        "code": "451300",
        "region": "1772",
        "name": "来宾市"
    },
    {
        "pinyin": "lasashi",
        "first_char": "L",
        "area": "7",
        "id": "420",
        "parentid": "29",
        "listorder": "0",
        "code": "540100",
        "region": "0891",
        "name": "拉萨市"
    },
    {
        "pinyin": "linzhi",
        "first_char": "L",
        "area": "7",
        "id": "426",
        "parentid": "29",
        "listorder": "0",
        "code": "540400",
        "region": "0894",
        "name": "林芝"
    },
    {
        "pinyin": "liangshan",
        "first_char": "L",
        "area": "7",
        "id": "436",
        "parentid": "28",
        "listorder": "0",
        "code": "513400",
        "region": "0834",
        "name": "凉山彝族自治州"
    },
    {
        "pinyin": "maanshanshi",
        "first_char": "M",
        "area": "3",
        "id": "57",
        "parentid": "9",
        "listorder": "0",
        "code": "340500",
        "region": "0555",
        "name": "马鞍山市"
    },
    {
        "pinyin": "mudanjiangshi",
        "first_char": "M",
        "area": "1",
        "id": "79",
        "parentid": "1",
        "listorder": "0",
        "code": "231000",
        "region": "0453",
        "name": "牡丹江市"
    },
    {
        "pinyin": "maomingshi",
        "first_char": "M",
        "area": "4",
        "id": "186",
        "parentid": "16",
        "listorder": "0",
        "code": "440900",
        "region": "0668",
        "name": "茂名市"
    },
    {
        "pinyin": "meizhoushi",
        "first_char": "M",
        "area": "4",
        "id": "189",
        "parentid": "16",
        "listorder": "0",
        "code": "441400",
        "region": "0753",
        "name": "梅州市"
    },
    {
        "pinyin": "mianyangshi",
        "first_char": "M",
        "area": "7",
        "id": "339",
        "parentid": "28",
        "listorder": "0",
        "code": "510700",
        "region": "0816",
        "name": "绵阳市"
    },
    {
        "pinyin": "meishanshi",
        "first_char": "M",
        "area": "7",
        "id": "345",
        "parentid": "28",
        "listorder": "0",
        "code": "511402",
        "region": "0833",
        "name": "眉山市"
    },
    {
        "pinyin": "nanpingshi",
        "first_char": "N",
        "area": "3",
        "id": "134",
        "parentid": "10",
        "listorder": "0",
        "code": "350700",
        "region": "0599",
        "name": "南平市"
    },
    {
        "pinyin": "ningdeshi",
        "first_char": "N",
        "area": "3",
        "id": "136",
        "parentid": "10",
        "listorder": "0",
        "code": "350900",
        "region": "0593",
        "name": "宁德市"
    },
    {
        "pinyin": "nanjingshi",
        "first_char": "N",
        "area": "3",
        "id": "137",
        "parentid": "11",
        "listorder": "0",
        "code": "320100",
        "region": "025",
        "name": "南京市"
    },
    {
        "pinyin": "nantongshi",
        "first_char": "N",
        "area": "3",
        "id": "142",
        "parentid": "11",
        "listorder": "0",
        "code": "320600",
        "region": "0513",
        "name": "南通市"
    },
    {
        "pinyin": "ningboshi",
        "first_char": "N",
        "area": "3",
        "id": "168",
        "parentid": "14",
        "listorder": "0",
        "code": "330200",
        "region": "0574",
        "name": "宁波市"
    },
    {
        "pinyin": "nanshaqundao",
        "first_char": "N",
        "area": "4",
        "id": "218",
        "parentid": "17",
        "listorder": "0",
        "code": "460322",
        "region": "1891",
        "name": "南沙群岛"
    },
    {
        "pinyin": "nanyangshi",
        "first_char": "N",
        "area": "5",
        "id": "232",
        "parentid": "18",
        "listorder": "0",
        "code": "411300",
        "region": "0377",
        "name": "南阳市"
    },
    {
        "pinyin": "nanchangshi",
        "first_char": "N",
        "area": "5",
        "id": "268",
        "parentid": "21",
        "listorder": "0",
        "code": "360100",
        "region": "0791",
        "name": "南昌市"
    },
    {
        "pinyin": "neijiangshi",
        "first_char": "N",
        "area": "7",
        "id": "342",
        "parentid": "28",
        "listorder": "0",
        "code": "511000",
        "region": "1832",
        "name": "内江市"
    },
    {
        "pinyin": "nanchongshi",
        "first_char": "N",
        "area": "7",
        "id": "344",
        "parentid": "28",
        "listorder": "0",
        "code": "511300",
        "region": "0817",
        "name": "南充市"
    },
    {
        "pinyin": "nujiang",
        "first_char": "N",
        "area": "7",
        "id": "369",
        "parentid": "30",
        "listorder": "0",
        "code": "533300",
        "region": "0886",
        "name": "怒江"
    },
    {
        "pinyin": "nanningshi",
        "first_char": "N",
        "area": "4",
        "id": "401",
        "parentid": "15",
        "listorder": "0",
        "code": "450100",
        "region": "0771",
        "name": "南宁市"
    },
    {
        "pinyin": "naqu",
        "first_char": "N",
        "area": "7",
        "id": "424",
        "parentid": "29",
        "listorder": "0",
        "code": "542421",
        "region": "0896",
        "name": "那曲"
    },
    {
        "pinyin": "panjinshi",
        "first_char": "P",
        "area": "1",
        "id": "102",
        "parentid": "3",
        "listorder": "0",
        "code": "211100",
        "region": "0427",
        "name": "盘锦市"
    },
    {
        "pinyin": "putianshi",
        "first_char": "P",
        "area": "3",
        "id": "130",
        "parentid": "10",
        "listorder": "0",
        "code": "350300",
        "region": "0594",
        "name": "莆田市"
    },
    {
        "pinyin": "pingdingshanshi",
        "first_char": "P",
        "area": "5",
        "id": "223",
        "parentid": "18",
        "listorder": "0",
        "code": "410400",
        "region": "0375",
        "name": "平顶山市"
    },
    {
        "pinyin": "puyangshi",
        "first_char": "P",
        "area": "5",
        "id": "228",
        "parentid": "18",
        "listorder": "0",
        "code": "410900",
        "region": "0393",
        "name": "濮阳市"
    },
    {
        "pinyin": "pingxiangshi",
        "first_char": "P",
        "area": "5",
        "id": "270",
        "parentid": "21",
        "listorder": "0",
        "code": "360300",
        "region": "0799",
        "name": "萍乡市"
    },
    {
        "pinyin": "pingliangshi",
        "first_char": "P",
        "area": "6",
        "id": "300",
        "parentid": "22",
        "listorder": "0",
        "code": "620800",
        "region": "0933",
        "name": "平凉市"
    },
    {
        "pinyin": "panzhihuashi",
        "first_char": "P",
        "area": "7",
        "id": "336",
        "parentid": "28",
        "listorder": "0",
        "code": "510400",
        "region": "0812",
        "name": "攀枝花市"
    },
    {
        "pinyin": "qiqihaershi",
        "first_char": "Q",
        "area": "1",
        "id": "71",
        "parentid": "1",
        "listorder": "0",
        "code": "230200",
        "region": "0452",
        "name": "齐齐哈尔市"
    },
    {
        "pinyin": "qitaiheshi",
        "first_char": "Q",
        "area": "1",
        "id": "78",
        "parentid": "1",
        "listorder": "0",
        "code": "230900",
        "region": "0464",
        "name": "七台河市"
    },
    {
        "pinyin": "qinhuangdaoshi",
        "first_char": "Q",
        "area": "2",
        "id": "108",
        "parentid": "5",
        "listorder": "0",
        "code": "130300",
        "region": "0335",
        "name": "秦皇岛市"
    },
    {
        "pinyin": "quanzhoushi",
        "first_char": "Q",
        "area": "3",
        "id": "132",
        "parentid": "10",
        "listorder": "0",
        "code": "350500",
        "region": "0595",
        "name": "泉州市"
    },
    {
        "pinyin": "qingdaoshi",
        "first_char": "Q",
        "area": "3",
        "id": "151",
        "parentid": "12",
        "listorder": "0",
        "code": "370200",
        "region": "0532",
        "name": "青岛市"
    },
    {
        "pinyin": "quzhoushi",
        "first_char": "Q",
        "area": "3",
        "id": "174",
        "parentid": "14",
        "listorder": "0",
        "code": "330800",
        "region": "0570",
        "name": "衢州市"
    },
    {
        "pinyin": "qingyuanshi",
        "first_char": "Q",
        "area": "4",
        "id": "193",
        "parentid": "16",
        "listorder": "0",
        "code": "441800",
        "region": "0763",
        "name": "清远市"
    },
    {
        "pinyin": "qionghaishi",
        "first_char": "Q",
        "area": "4",
        "id": "202",
        "parentid": "17",
        "listorder": "0",
        "code": "469002",
        "region": "1894",
        "name": "琼海市"
    },
    {
        "pinyin": "qiongzhonglizumiaozuzizhixian",
        "first_char": "Q",
        "area": "4",
        "id": "216",
        "parentid": "17",
        "listorder": "0",
        "code": "469030",
        "region": "1899",
        "name": "琼中黎族苗族自治县"
    },
    {
        "pinyin": "qianjiangshi",
        "first_char": "Q",
        "area": "5",
        "id": "251",
        "parentid": "19",
        "listorder": "0",
        "code": "429005",
        "region": "2728",
        "name": "潜江市"
    },
    {
        "pinyin": "qingyangshi",
        "first_char": "Q",
        "area": "6",
        "id": "302",
        "parentid": "22",
        "listorder": "0",
        "code": "621000",
        "region": "0934",
        "name": "庆阳市"
    },
    {
        "pinyin": "qujingshi",
        "first_char": "Q",
        "area": "7",
        "id": "356",
        "parentid": "30",
        "listorder": "0",
        "code": "530300",
        "region": "0874",
        "name": "曲靖市"
    },
    {
        "pinyin": "qinzhoushi",
        "first_char": "Q",
        "area": "4",
        "id": "407",
        "parentid": "15",
        "listorder": "0",
        "code": "450700",
        "region": "0777",
        "name": "钦州市"
    },
    {
        "pinyin": "qianxinan",
        "first_char": "Q",
        "area": "7",
        "id": "439",
        "parentid": "27",
        "listorder": "0",
        "code": "522300",
        "region": "0859",
        "name": "黔西南布依族苗族自治州"
    },
    {
        "pinyin": "rizhaoshi",
        "first_char": "R",
        "area": "3",
        "id": "160",
        "parentid": "12",
        "listorder": "0",
        "code": "371100",
        "region": "0633",
        "name": "日照市"
    },
    {
        "pinyin": "rikaze",
        "first_char": "R",
        "area": "7",
        "id": "423",
        "parentid": "29",
        "listorder": "0",
        "code": "540200",
        "region": "0892",
        "name": "日喀则"
    },
    {
        "pinyin": "suzhoushi",
        "first_char": "S",
        "area": "3",
        "id": "64",
        "parentid": "9",
        "listorder": "0",
        "code": "341300",
        "region": "0557",
        "name": "宿州市"
    },
    {
        "pinyin": "shuangyashanshi",
        "first_char": "S",
        "area": "1",
        "id": "74",
        "parentid": "1",
        "listorder": "0",
        "code": "230500",
        "region": "0469",
        "name": "双鸭山市"
    },
    {
        "pinyin": "suihuashi",
        "first_char": "S",
        "area": "1",
        "id": "81",
        "parentid": "1",
        "listorder": "0",
        "code": "231200",
        "region": "0455",
        "name": "绥化市"
    },
    {
        "pinyin": "sipingshi",
        "first_char": "S",
        "area": "1",
        "id": "85",
        "parentid": "2",
        "listorder": "0",
        "code": "220300",
        "region": "0434",
        "name": "四平市"
    },
    {
        "pinyin": "songyuanshi",
        "first_char": "S",
        "area": "1",
        "id": "89",
        "parentid": "2",
        "listorder": "0",
        "code": "220700",
        "region": "0438",
        "name": "松原市"
    },
    {
        "pinyin": "shenyangshi",
        "first_char": "S",
        "area": "1",
        "id": "92",
        "parentid": "3",
        "listorder": "0",
        "code": "210100",
        "region": "024",
        "name": "沈阳市"
    },
    {
        "pinyin": "shijiazhuangshi",
        "first_char": "S",
        "area": "2",
        "id": "106",
        "parentid": "5",
        "listorder": "0",
        "code": "130100",
        "region": "0311",
        "name": "石家庄市"
    },
    {
        "pinyin": "shuozhoushi",
        "first_char": "S",
        "area": "2",
        "id": "122",
        "parentid": "7",
        "listorder": "0",
        "code": "140600",
        "region": "0349",
        "name": "朔州市"
    },
    {
        "pinyin": "sanmingshi",
        "first_char": "S",
        "area": "3",
        "id": "131",
        "parentid": "10",
        "listorder": "0",
        "code": "350401",
        "region": "0598",
        "name": "三明市"
    },
    {
        "pinyin": "suzhoushi",
        "first_char": "S",
        "area": "3",
        "id": "141",
        "parentid": "11",
        "listorder": "0",
        "code": "320500",
        "region": "0512",
        "name": "苏州市"
    },
    {
        "pinyin": "suqianshi",
        "first_char": "S",
        "area": "3",
        "id": "149",
        "parentid": "11",
        "listorder": "0",
        "code": "321300",
        "region": "0527",
        "name": "宿迁市"
    },
    {
        "pinyin": "shaoxingshi",
        "first_char": "S",
        "area": "3",
        "id": "172",
        "parentid": "14",
        "listorder": "0",
        "code": "330600",
        "region": "0575",
        "name": "绍兴市"
    },
    {
        "pinyin": "shaoguanshi",
        "first_char": "S",
        "area": "4",
        "id": "179",
        "parentid": "16",
        "listorder": "0",
        "code": "440200",
        "region": "0751",
        "name": "韶关市"
    },
    {
        "pinyin": "shenshi",
        "first_char": "S",
        "area": "4",
        "id": "180",
        "parentid": "16",
        "listorder": "0",
        "code": "440300",
        "region": "0755",
        "name": "深圳市"
    },
    {
        "pinyin": "shantoushi",
        "first_char": "S",
        "area": "4",
        "id": "182",
        "parentid": "16",
        "listorder": "0",
        "code": "440500",
        "region": "0754",
        "name": "汕头市"
    },
    {
        "pinyin": "shanweishi",
        "first_char": "S",
        "area": "4",
        "id": "190",
        "parentid": "16",
        "listorder": "0",
        "code": "441500",
        "region": "0660",
        "name": "汕尾市"
    },
    {
        "pinyin": "sanyashi",
        "first_char": "S",
        "area": "4",
        "id": "200",
        "parentid": "17",
        "listorder": "0",
        "code": "460200",
        "region": "0899",
        "name": "三亚市"
    },
    {
        "pinyin": "sanmenxiashi",
        "first_char": "S",
        "area": "5",
        "id": "231",
        "parentid": "18",
        "listorder": "0",
        "code": "411200",
        "region": "0398",
        "name": "三门峡市"
    },
    {
        "pinyin": "shangqiushi",
        "first_char": "S",
        "area": "5",
        "id": "233",
        "parentid": "18",
        "listorder": "0",
        "code": "411400",
        "region": "0370",
        "name": "商丘市"
    },
    {
        "pinyin": "shiyanshi",
        "first_char": "S",
        "area": "5",
        "id": "239",
        "parentid": "19",
        "listorder": "0",
        "code": "420300",
        "region": "0719",
        "name": "十堰市"
    },
    {
        "pinyin": "suizhoushi",
        "first_char": "S",
        "area": "5",
        "id": "248",
        "parentid": "19",
        "listorder": "0",
        "code": "421300",
        "region": "0722",
        "name": "随州市"
    },
    {
        "pinyin": "shennongjialinqu",
        "first_char": "S",
        "area": "5",
        "id": "253",
        "parentid": "19",
        "listorder": "0",
        "code": "429021",
        "region": "1719",
        "name": "神农架林区"
    },
    {
        "pinyin": "shaoyangshi",
        "first_char": "S",
        "area": "5",
        "id": "258",
        "parentid": "20",
        "listorder": "0",
        "code": "430500",
        "region": "0739",
        "name": "邵阳市"
    },
    {
        "pinyin": "shangraoshi",
        "first_char": "S",
        "area": "5",
        "id": "278",
        "parentid": "21",
        "listorder": "0",
        "code": "361100",
        "region": "0793",
        "name": "上饶市"
    },
    {
        "pinyin": "shangluoshi",
        "first_char": "S",
        "area": "6",
        "id": "324",
        "parentid": "25",
        "listorder": "0",
        "code": "611000",
        "region": "0914",
        "name": "商洛市"
    },
    {
        "pinyin": "suiningshi",
        "first_char": "S",
        "area": "7",
        "id": "341",
        "parentid": "28",
        "listorder": "0",
        "code": "510900",
        "region": "0825",
        "name": "遂宁市"
    },
    {
        "pinyin": "shihezishi",
        "first_char": "S",
        "area": "6",
        "id": "397",
        "parentid": "26",
        "listorder": "0",
        "code": "659001",
        "region": "0993",
        "name": "石河子市"
    },
    {
        "pinyin": "shizuishanshi",
        "first_char": "S",
        "area": "6",
        "id": "416",
        "parentid": "23",
        "listorder": "0",
        "code": "640200",
        "region": "0952",
        "name": "石嘴山市"
    },
    {
        "pinyin": "shannan",
        "first_char": "S",
        "area": "7",
        "id": "422",
        "parentid": "29",
        "listorder": "0",
        "code": "542200",
        "region": "0893",
        "name": "山南"
    },
    {
        "pinyin": "shanghaishi",
        "first_char": "S",
        "area": "3",
        "id": "430",
        "parentid": "13",
        "listorder": "0",
        "code": "310100",
        "region": "021",
        "name": "上海市"
    },
    {
        "pinyin": "tonglingshi",
        "first_char": "T",
        "area": "3",
        "id": "59",
        "parentid": "9",
        "listorder": "0",
        "code": "340700",
        "region": "0562",
        "name": "铜陵市"
    },
    {
        "pinyin": "tonghuashi",
        "first_char": "T",
        "area": "1",
        "id": "87",
        "parentid": "2",
        "listorder": "0",
        "code": "220500",
        "region": "0435",
        "name": "通化市"
    },
    {
        "pinyin": "tielingshi",
        "first_char": "T",
        "area": "1",
        "id": "103",
        "parentid": "3",
        "listorder": "0",
        "code": "211200",
        "region": "0410",
        "name": "铁岭市"
    },
    {
        "pinyin": "tangshanshi",
        "first_char": "T",
        "area": "2",
        "id": "107",
        "parentid": "5",
        "listorder": "0",
        "code": "130200",
        "region": "0315",
        "name": "唐山市"
    },
    {
        "pinyin": "taiyuanshi",
        "first_char": "T",
        "area": "2",
        "id": "117",
        "parentid": "7",
        "listorder": "0",
        "code": "140100",
        "region": "0351",
        "name": "太原市"
    },
    {
        "pinyin": "taizhoushi",
        "first_char": "T",
        "area": "3",
        "id": "148",
        "parentid": "11",
        "listorder": "0",
        "code": "321200",
        "region": "0523",
        "name": "泰州市"
    },
    {
        "pinyin": "taianshi",
        "first_char": "T",
        "area": "3",
        "id": "158",
        "parentid": "12",
        "listorder": "0",
        "code": "370900",
        "region": "0538",
        "name": "泰安市"
    },
    {
        "pinyin": "taizhoushi",
        "first_char": "T",
        "area": "3",
        "id": "176",
        "parentid": "14",
        "listorder": "0",
        "code": "331000",
        "region": "0576",
        "name": "台州市"
    },
    {
        "pinyin": "tunchangxian",
        "first_char": "T",
        "area": "4",
        "id": "208",
        "parentid": "17",
        "listorder": "0",
        "code": "469022",
        "region": "1892",
        "name": "屯昌县"
    },
    {
        "pinyin": "tianmenshi",
        "first_char": "T",
        "area": "5",
        "id": "252",
        "parentid": "19",
        "listorder": "0",
        "code": "429006",
        "region": "1728",
        "name": "天门市"
    },
    {
        "pinyin": "tianshuishi",
        "first_char": "T",
        "area": "6",
        "id": "297",
        "parentid": "22",
        "listorder": "0",
        "code": "620500",
        "region": "0938",
        "name": "天水市"
    },
    {
        "pinyin": "tongchuanshi",
        "first_char": "T",
        "area": "6",
        "id": "316",
        "parentid": "25",
        "listorder": "0",
        "code": "610200",
        "region": "0919",
        "name": "铜川市"
    },
    {
        "pinyin": "tongliaoshi",
        "first_char": "T",
        "area": "2",
        "id": "375",
        "parentid": "6",
        "listorder": "0",
        "code": "150500",
        "region": "0475",
        "name": "通辽市"
    },
    {
        "pinyin": "tachengdiqu",
        "first_char": "T",
        "area": "6",
        "id": "395",
        "parentid": "26",
        "listorder": "0",
        "code": "654200",
        "region": "0901",
        "name": "塔城地区"
    },
    {
        "pinyin": "tumushukeshi",
        "first_char": "T",
        "area": "6",
        "id": "399",
        "parentid": "26",
        "listorder": "0",
        "code": "659003",
        "region": "1998",
        "name": "图木舒克市"
    },
    {
        "pinyin": "tianjinshi",
        "first_char": "T",
        "area": "2",
        "id": "429",
        "parentid": "8",
        "listorder": "0",
        "code": "120100",
        "region": "022",
        "name": "天津市"
    },
    {
        "pinyin": "tongrenshi",
        "first_char": "T",
        "area": "7",
        "id": "432",
        "parentid": "27",
        "listorder": "0",
        "code": "520600",
        "region": "0856",
        "name": "铜仁市"
    },
    {
        "pinyin": "wuhushi",
        "first_char": "W",
        "area": "3",
        "id": "54",
        "parentid": "9",
        "listorder": "0",
        "code": "340200",
        "region": "0553",
        "name": "芜湖市"
    },
    {
        "pinyin": "wuxishi",
        "first_char": "W",
        "area": "3",
        "id": "138",
        "parentid": "11",
        "listorder": "0",
        "code": "320200",
        "region": "0510",
        "name": "无锡市"
    },
    {
        "pinyin": "weifangshi",
        "first_char": "W",
        "area": "3",
        "id": "156",
        "parentid": "12",
        "listorder": "0",
        "code": "370700",
        "region": "0536",
        "name": "潍坊市"
    },
    {
        "pinyin": "weihaishi",
        "first_char": "W",
        "area": "3",
        "id": "159",
        "parentid": "12",
        "listorder": "0",
        "code": "371000",
        "region": "0631",
        "name": "威海市"
    },
    {
        "pinyin": "wenzhoushi",
        "first_char": "W",
        "area": "3",
        "id": "169",
        "parentid": "14",
        "listorder": "0",
        "code": "330300",
        "region": "0577",
        "name": "温州市"
    },
    {
        "pinyin": "wuzhishanshi",
        "first_char": "W",
        "area": "4",
        "id": "201",
        "parentid": "17",
        "listorder": "0",
        "code": "469001",
        "region": "1897",
        "name": "五指山市"
    },
    {
        "pinyin": "wenchangshi",
        "first_char": "W",
        "area": "4",
        "id": "204",
        "parentid": "17",
        "listorder": "0",
        "code": "469005",
        "region": "1893",
        "name": "文昌市"
    },
    {
        "pinyin": "wanningshi",
        "first_char": "W",
        "area": "4",
        "id": "205",
        "parentid": "17",
        "listorder": "0",
        "code": "469006",
        "region": "1898",
        "name": "万宁市"
    },
    {
        "pinyin": "wuhanshi",
        "first_char": "W",
        "area": "5",
        "id": "237",
        "parentid": "19",
        "listorder": "0",
        "code": "420100",
        "region": "027",
        "name": "武汉市"
    },
    {
        "pinyin": "wuweishi",
        "first_char": "W",
        "area": "6",
        "id": "298",
        "parentid": "22",
        "listorder": "0",
        "code": "620600",
        "region": "1935",
        "name": "武威市"
    },
    {
        "pinyin": "weinanshi",
        "first_char": "W",
        "area": "6",
        "id": "319",
        "parentid": "25",
        "listorder": "0",
        "code": "610500",
        "region": "0913",
        "name": "渭南市"
    },
    {
        "pinyin": "wuhaishi",
        "first_char": "W",
        "area": "2",
        "id": "373",
        "parentid": "6",
        "listorder": "0",
        "code": "150300",
        "region": "0473",
        "name": "乌海市"
    },
    {
        "pinyin": "wulanchabushi",
        "first_char": "W",
        "area": "2",
        "id": "379",
        "parentid": "6",
        "listorder": "0",
        "code": "150900",
        "region": "0474",
        "name": "乌兰察布市"
    },
    {
        "pinyin": "wulumuqishi",
        "first_char": "W",
        "area": "6",
        "id": "383",
        "parentid": "26",
        "listorder": "0",
        "code": "650100",
        "region": "0991",
        "name": "乌鲁木齐市"
    },
    {
        "pinyin": "wujiaqushi",
        "first_char": "W",
        "area": "6",
        "id": "400",
        "parentid": "26",
        "listorder": "0",
        "code": "659004",
        "region": "1994",
        "name": "五家渠市"
    },
    {
        "pinyin": "wuzhoushi",
        "first_char": "W",
        "area": "4",
        "id": "404",
        "parentid": "15",
        "listorder": "0",
        "code": "450400",
        "region": "0774",
        "name": "梧州市"
    },
    {
        "pinyin": "wuzhongshi",
        "first_char": "W",
        "area": "6",
        "id": "417",
        "parentid": "23",
        "listorder": "0",
        "code": "640300",
        "region": "0953",
        "name": "吴忠市"
    },
    {
        "pinyin": "wenshan",
        "first_char": "W",
        "area": "7",
        "id": "440",
        "parentid": "30",
        "listorder": "0",
        "code": "532600",
        "region": "0876",
        "name": "文山壮族苗族自治州"
    },
    {
        "pinyin": "xuanchengshi",
        "first_char": "X",
        "area": "3",
        "id": "69",
        "parentid": "9",
        "listorder": "0",
        "code": "341800",
        "region": "0563",
        "name": "宣城市"
    },
    {
        "pinyin": "xingtaishi",
        "first_char": "X",
        "area": "2",
        "id": "110",
        "parentid": "5",
        "listorder": "0",
        "code": "130500",
        "region": "0319",
        "name": "邢台市"
    },
    {
        "pinyin": "xinzhoushi",
        "first_char": "X",
        "area": "2",
        "id": "125",
        "parentid": "7",
        "listorder": "0",
        "code": "140900",
        "region": "0350",
        "name": "忻州市"
    },
    {
        "pinyin": "xiamenshi",
        "first_char": "X",
        "area": "3",
        "id": "129",
        "parentid": "10",
        "listorder": "0",
        "code": "350200",
        "region": "0592",
        "name": "厦门市"
    },
    {
        "pinyin": "xuzhoushi",
        "first_char": "X",
        "area": "3",
        "id": "139",
        "parentid": "11",
        "listorder": "0",
        "code": "320300",
        "region": "0516",
        "name": "徐州市"
    },
    {
        "pinyin": "xishaqundao",
        "first_char": "X",
        "area": "4",
        "id": "217",
        "parentid": "17",
        "listorder": "0",
        "code": "460321",
        "region": "1895",
        "name": "西沙群岛"
    },
    {
        "pinyin": "xinxiangshi",
        "first_char": "X",
        "area": "5",
        "id": "226",
        "parentid": "18",
        "listorder": "0",
        "code": "410700",
        "region": "0373",
        "name": "新乡市"
    },
    {
        "pinyin": "xuchangshi",
        "first_char": "X",
        "area": "5",
        "id": "229",
        "parentid": "18",
        "listorder": "0",
        "code": "411000",
        "region": "0374",
        "name": "许昌市"
    },
    {
        "pinyin": "xinyangshi",
        "first_char": "X",
        "area": "5",
        "id": "234",
        "parentid": "18",
        "listorder": "0",
        "code": "411500",
        "region": "0376",
        "name": "信阳市"
    },
    {
        "pinyin": "xiaoganshi",
        "first_char": "X",
        "area": "5",
        "id": "244",
        "parentid": "19",
        "listorder": "0",
        "code": "420900",
        "region": "0712",
        "name": "孝感市"
    },
    {
        "pinyin": "xianningshi",
        "first_char": "X",
        "area": "5",
        "id": "247",
        "parentid": "19",
        "listorder": "0",
        "code": "421200",
        "region": "0715",
        "name": "咸宁市"
    },
    {
        "pinyin": "xiantaoshi",
        "first_char": "X",
        "area": "5",
        "id": "250",
        "parentid": "19",
        "listorder": "0",
        "code": "429004",
        "region": "0728",
        "name": "仙桃市"
    },
    {
        "pinyin": "xiangtanshi",
        "first_char": "X",
        "area": "5",
        "id": "256",
        "parentid": "20",
        "listorder": "0",
        "code": "430300",
        "region": "0732",
        "name": "湘潭市"
    },
    {
        "pinyin": "xiangxitujiazumiaozuzizhizhou",
        "first_char": "X",
        "area": "5",
        "id": "267",
        "parentid": "20",
        "listorder": "0",
        "code": "433100",
        "region": "0743",
        "name": "湘西土家族苗族自治州"
    },
    {
        "pinyin": "xinyushi",
        "first_char": "X",
        "area": "5",
        "id": "272",
        "parentid": "21",
        "listorder": "0",
        "code": "360500",
        "region": "0790",
        "name": "新余市"
    },
    {
        "pinyin": "xiningshi",
        "first_char": "X",
        "area": "6",
        "id": "307",
        "parentid": "24",
        "listorder": "0",
        "code": "630100",
        "region": "0971",
        "name": "西宁市"
    },
    {
        "pinyin": "xianshi",
        "first_char": "X",
        "area": "6",
        "id": "315",
        "parentid": "25",
        "listorder": "0",
        "code": "610100",
        "region": "029",
        "name": "西安市"
    },
    {
        "pinyin": "xianyangshi",
        "first_char": "X",
        "area": "6",
        "id": "318",
        "parentid": "25",
        "listorder": "0",
        "code": "610400",
        "region": "0910",
        "name": "咸阳市"
    },
    {
        "pinyin": "xishuangbanna",
        "first_char": "X",
        "area": "7",
        "id": "366",
        "parentid": "30",
        "listorder": "0",
        "code": "532800",
        "region": "0691",
        "name": "西双版纳"
    },
    {
        "pinyin": "xinganmeng",
        "first_char": "X",
        "area": "2",
        "id": "380",
        "parentid": "6",
        "listorder": "0",
        "code": "152200",
        "region": "0482",
        "name": "兴安盟"
    },
    {
        "pinyin": "xilinguolemeng",
        "first_char": "X",
        "area": "2",
        "id": "381",
        "parentid": "6",
        "listorder": "0",
        "code": "152500",
        "region": "0479",
        "name": "锡林郭勒盟"
    },
    {
        "pinyin": "xiangyang",
        "first_char": "X",
        "area": "5",
        "id": "433",
        "parentid": "19",
        "listorder": "0",
        "code": "420600",
        "region": "0710",
        "name": "襄阳市"
    },
    {
        "pinyin": "yichunshi",
        "first_char": "Y",
        "area": "1",
        "id": "76",
        "parentid": "1",
        "listorder": "0",
        "code": "230700",
        "region": "0458",
        "name": "伊春市"
    },
    {
        "pinyin": "yanbian",
        "first_char": "Y",
        "area": "1",
        "id": "91",
        "parentid": "2",
        "listorder": "0",
        "code": "222400",
        "region": "1433",
        "name": "延边"
    },
    {
        "pinyin": "yingkoushi",
        "first_char": "Y",
        "area": "1",
        "id": "99",
        "parentid": "3",
        "listorder": "0",
        "code": "210800",
        "region": "0417",
        "name": "营口市"
    },
    {
        "pinyin": "yangquanshi",
        "first_char": "Y",
        "area": "2",
        "id": "119",
        "parentid": "7",
        "listorder": "0",
        "code": "140300",
        "region": "0353",
        "name": "阳泉市"
    },
    {
        "pinyin": "yunchengshi",
        "first_char": "Y",
        "area": "2",
        "id": "124",
        "parentid": "7",
        "listorder": "0",
        "code": "140800",
        "region": "0359",
        "name": "运城市"
    },
    {
        "pinyin": "yanchengshi",
        "first_char": "Y",
        "area": "3",
        "id": "145",
        "parentid": "11",
        "listorder": "0",
        "code": "320900",
        "region": "0515",
        "name": "盐城市"
    },
    {
        "pinyin": "yangzhoushi",
        "first_char": "Y",
        "area": "3",
        "id": "146",
        "parentid": "11",
        "listorder": "0",
        "code": "321000",
        "region": "0514",
        "name": "扬州市"
    },
    {
        "pinyin": "yantaishi",
        "first_char": "Y",
        "area": "3",
        "id": "155",
        "parentid": "12",
        "listorder": "0",
        "code": "370600",
        "region": "0535",
        "name": "烟台市"
    },
    {
        "pinyin": "yangjiangshi",
        "first_char": "Y",
        "area": "4",
        "id": "192",
        "parentid": "16",
        "listorder": "0",
        "code": "441700",
        "region": "0662",
        "name": "阳江市"
    },
    {
        "pinyin": "yunfushi",
        "first_char": "Y",
        "area": "4",
        "id": "198",
        "parentid": "16",
        "listorder": "0",
        "code": "445300",
        "region": "0766",
        "name": "云浮市"
    },
    {
        "pinyin": "yichangshi",
        "first_char": "Y",
        "area": "5",
        "id": "240",
        "parentid": "19",
        "listorder": "0",
        "code": "420500",
        "region": "0717",
        "name": "宜昌市"
    },
    {
        "pinyin": "yueyangshi",
        "first_char": "Y",
        "area": "5",
        "id": "259",
        "parentid": "20",
        "listorder": "0",
        "code": "430600",
        "region": "0730",
        "name": "岳阳市"
    },
    {
        "pinyin": "yiyangshi",
        "first_char": "Y",
        "area": "5",
        "id": "262",
        "parentid": "20",
        "listorder": "0",
        "code": "430900",
        "region": "0737",
        "name": "益阳市"
    },
    {
        "pinyin": "yongzhoushi",
        "first_char": "Y",
        "area": "5",
        "id": "264",
        "parentid": "20",
        "listorder": "0",
        "code": "431100",
        "region": "0746",
        "name": "永州市"
    },
    {
        "pinyin": "yingtanshi",
        "first_char": "Y",
        "area": "5",
        "id": "273",
        "parentid": "21",
        "listorder": "0",
        "code": "360600",
        "region": "0701",
        "name": "鹰潭市"
    },
    {
        "pinyin": "yichunshi",
        "first_char": "Y",
        "area": "5",
        "id": "276",
        "parentid": "21",
        "listorder": "0",
        "code": "360900",
        "region": "0795",
        "name": "宜春市"
    },
    {
        "pinyin": "yananshi",
        "first_char": "Y",
        "area": "6",
        "id": "320",
        "parentid": "25",
        "listorder": "0",
        "code": "610600",
        "region": "0911",
        "name": "延安市"
    },
    {
        "pinyin": "yulinshi",
        "first_char": "Y",
        "area": "6",
        "id": "322",
        "parentid": "25",
        "listorder": "0",
        "code": "610800",
        "region": "0912",
        "name": "榆林市"
    },
    {
        "pinyin": "yibinshi",
        "first_char": "Y",
        "area": "7",
        "id": "346",
        "parentid": "28",
        "listorder": "0",
        "code": "511500",
        "region": "0831",
        "name": "宜宾市"
    },
    {
        "pinyin": "yaanshi",
        "first_char": "Y",
        "area": "7",
        "id": "349",
        "parentid": "28",
        "listorder": "0",
        "code": "511800",
        "region": "0835",
        "name": "雅安市"
    },
    {
        "pinyin": "yuxishi",
        "first_char": "Y",
        "area": "7",
        "id": "357",
        "parentid": "30",
        "listorder": "0",
        "code": "530400",
        "region": "0877",
        "name": "玉溪市"
    },
    {
        "pinyin": "yulinshi",
        "first_char": "Y",
        "area": "4",
        "id": "409",
        "parentid": "15",
        "listorder": "0",
        "code": "450900",
        "region": "0775",
        "name": "玉林市"
    },
    {
        "pinyin": "yinchuanshi",
        "first_char": "Y",
        "area": "6",
        "id": "415",
        "parentid": "23",
        "listorder": "0",
        "code": "640100",
        "region": "0951",
        "name": "银川市"
    },
    {
        "pinyin": "zhangjiakoushi",
        "first_char": "Z",
        "area": "2",
        "id": "112",
        "parentid": "5",
        "listorder": "0",
        "code": "130700",
        "region": "0313",
        "name": "张家口市"
    },
    {
        "pinyin": "zhangzhoushi",
        "first_char": "Z",
        "area": "3",
        "id": "133",
        "parentid": "10",
        "listorder": "0",
        "code": "350600",
        "region": "0596",
        "name": "漳州市"
    },
    {
        "pinyin": "zhenjiangshi",
        "first_char": "Z",
        "area": "3",
        "id": "147",
        "parentid": "11",
        "listorder": "0",
        "code": "321100",
        "region": "0511",
        "name": "镇江市"
    },
    {
        "pinyin": "ziboshi",
        "first_char": "Z",
        "area": "3",
        "id": "152",
        "parentid": "12",
        "listorder": "0",
        "code": "370300",
        "region": "0533",
        "name": "淄博市"
    },
    {
        "pinyin": "zaozhuangshi",
        "first_char": "Z",
        "area": "3",
        "id": "153",
        "parentid": "12",
        "listorder": "0",
        "code": "370400",
        "region": "0632",
        "name": "枣庄市"
    },
    {
        "pinyin": "zhoushanshi",
        "first_char": "Z",
        "area": "3",
        "id": "175",
        "parentid": "14",
        "listorder": "0",
        "code": "330900",
        "region": "0580",
        "name": "舟山市"
    },
    {
        "pinyin": "zhuhaishi",
        "first_char": "Z",
        "area": "4",
        "id": "181",
        "parentid": "16",
        "listorder": "0",
        "code": "440400",
        "region": "0756",
        "name": "珠海市"
    },
    {
        "pinyin": "zhanjiangshi",
        "first_char": "Z",
        "area": "4",
        "id": "185",
        "parentid": "16",
        "listorder": "0",
        "code": "440800",
        "region": "0759",
        "name": "湛江市"
    },
    {
        "pinyin": "zhaoqingshi",
        "first_char": "Z",
        "area": "4",
        "id": "187",
        "parentid": "16",
        "listorder": "0",
        "code": "441200",
        "region": "0758",
        "name": "肇庆市"
    },
    {
        "pinyin": "zhongshanshi",
        "first_char": "Z",
        "area": "4",
        "id": "195",
        "parentid": "16",
        "listorder": "0",
        "code": "442000",
        "region": "0760",
        "name": "中山市"
    },
    {
        "pinyin": "zhongshaqundaodedaojiaojiqihaiyu",
        "first_char": "Z",
        "area": "4",
        "id": "219",
        "parentid": "17",
        "listorder": "0",
        "code": "460323",
        "region": "2801",
        "name": "中沙群岛的岛礁及其海域"
    },
    {
        "pinyin": "zhengzhoushi",
        "first_char": "Z",
        "area": "5",
        "id": "220",
        "parentid": "18",
        "listorder": "0",
        "code": "410100",
        "region": "0371",
        "name": "郑州市"
    },
    {
        "pinyin": "zhoukoushi",
        "first_char": "Z",
        "area": "5",
        "id": "235",
        "parentid": "18",
        "listorder": "0",
        "code": "411600",
        "region": "0394",
        "name": "周口市"
    },
    {
        "pinyin": "zhumadianshi",
        "first_char": "Z",
        "area": "5",
        "id": "236",
        "parentid": "18",
        "listorder": "0",
        "code": "411700",
        "region": "0396",
        "name": "驻马店市"
    },
    {
        "pinyin": "zhuzhoushi",
        "first_char": "Z",
        "area": "5",
        "id": "255",
        "parentid": "20",
        "listorder": "0",
        "code": "430200",
        "region": "0733",
        "name": "株洲市"
    },
    {
        "pinyin": "zhangjiajieshi",
        "first_char": "Z",
        "area": "5",
        "id": "261",
        "parentid": "20",
        "listorder": "0",
        "code": "430800",
        "region": "0744",
        "name": "张家界市"
    },
    {
        "pinyin": "zhangyeshi",
        "first_char": "Z",
        "area": "6",
        "id": "299",
        "parentid": "22",
        "listorder": "0",
        "code": "620700",
        "region": "0936",
        "name": "张掖市"
    },
    {
        "pinyin": "zunyishi",
        "first_char": "Z",
        "area": "7",
        "id": "327",
        "parentid": "27",
        "listorder": "0",
        "code": "520300",
        "region": "0852",
        "name": "遵义市"
    },
    {
        "pinyin": "zigongshi",
        "first_char": "Z",
        "area": "7",
        "id": "335",
        "parentid": "28",
        "listorder": "0",
        "code": "510300",
        "region": "0813",
        "name": "自贡市"
    },
    {
        "pinyin": "zhoushi",
        "first_char": "Z",
        "area": "7",
        "id": "337",
        "parentid": "28",
        "listorder": "0",
        "code": "510500",
        "region": "0830",
        "name": "泸州市"
    },
    {
        "pinyin": "ziyangshi",
        "first_char": "Z",
        "area": "7",
        "id": "351",
        "parentid": "28",
        "listorder": "0",
        "code": "512000",
        "region": "0832",
        "name": "资阳市"
    },
    {
        "pinyin": "zhaotongshi",
        "first_char": "Z",
        "area": "7",
        "id": "359",
        "parentid": "30",
        "listorder": "0",
        "code": "530600",
        "region": "0870",
        "name": "昭通市"
    },
    {
        "pinyin": "zhongweishi",
        "first_char": "Z",
        "area": "6",
        "id": "419",
        "parentid": "23",
        "listorder": "0",
        "code": "640500",
        "region": "1953",
        "name": "中卫市"
    }
]
